[{"OBJECT_NAME":"SL-14 R/B","OBJECT_ID":"1986-006B","EPOCH":"2026-03-20T10:08:57.696864","MEAN_MOTION":14.86830041,"ECCENTRICITY":0.00752907,"INCLINATION":82.5238,"RA_OF_ASC_NODE":249.6325,"ARG_OF_PERICENTER":236.5417,"MEAN_ANOMALY":122.8588,"EPHEMERIS_TYPE":0,"CLASSIFICATION_TYPE":"U","NORAD_CAT_ID":16496,"ELEMENT_SET_NO":999,"REV_AT_EPOCH":15080,"BSTAR":7.056875e-5,"MEAN_MOTION_DOT":6.88e-6,"MEAN_MOTION_DDOT":0},{"OBJECT_NAME":"COSMOS 1743","OBJECT_ID":"1986-034A","EPOCH":"2026-03-20T10:12:50.814432","MEAN_MOTION":15.59330506,"ECCENTRICITY":0.00025559,"INCLINATION":82.5295,"RA_OF_ASC_NODE":62.554,"ARG_OF_PERICENTER":203.0249,"MEAN_ANOMALY":157.0893,"EPHEMERIS_TYPE":0,"CLASSIFICATION_TYPE":"U","NORAD_CAT_ID":16719,"ELEMENT_SET_NO":999,"REV_AT_EPOCH":18192,"BSTAR":0.00038942128,"MEAN_MOTION_DOT":0.0003076,"MEAN_MOTION_DDOT":0},{"OBJECT_NAME":"SL-14 R/B","OBJECT_ID":"1986-046B","EPOCH":"2026-03-20T09:10:08.101344","MEAN_MOTION":14.8560013,"ECCENTRICITY":0.00227977,"INCLINATION":82.479,"RA_OF_ASC_NODE":70.0755,"ARG_OF_PERICENTER":188.8755,"MEAN_ANOMALY":171.2062,"EPHEMERIS_TYPE":0,"CLASSIFICATION_TYPE":"U","NORAD_CAT_ID":16792,"ELEMENT_SET_NO":999,"REV_AT_EPOCH":12799,"BSTAR":4.4168792e-5,"MEAN_MOTION_DOT":4.08e-6,"MEAN_MOTION_DDOT":0},{"OBJECT_NAME":"SL-14 R/B","OBJECT_ID":"1986-055B","EPOCH":"2026-03-20T08:49:28.490304","MEAN_MOTION":14.8565152,"ECCENTRICITY":0.00174908,"INCLINATION":82.5181,"RA_OF_ASC_NODE":116.6361,"ARG_OF_PERICENTER":299.2069,"MEAN_ANOMALY":71.169,"EPHEMERIS_TYPE":0,"CLASSIFICATION_TYPE":"U","NORAD_CAT_ID":16882,"ELEMENT_SET_NO":999,"REV_AT_EPOCH":12095,"BSTAR":4.0285266e-5,"MEAN_MOTION_DOT":3.74e-6,"MEAN_MOTION_DDOT":0},{"OBJECT_NAME":"AJISAI (EGS)","OBJECT_ID":"1986-061A","EPOCH":"2026-03-20T13:33:45.282816","MEAN_MOTION":12.44515677,"ECCENTRICITY":0.00113074,"INCLINATION":50.0094,"RA_OF_ASC_NODE":59.9043,"ARG_OF_PERICENTER":315.0531,"MEAN_ANOMALY":150.9447,"EPHEMERIS_TYPE":0,"CLASSIFICATION_TYPE":"U","NORAD_CAT_ID":16908,"ELEMENT_SET_NO":999,"REV_AT_EPOCH":46935,"BSTAR":-0.00012244588,"MEAN_MOTION_DOT":-1.15e-6,"MEAN_MOTION_DDOT":0},{"OBJECT_NAME":"SL-14 R/B","OBJECT_ID":"1987-024B","EPOCH":"2026-03-20T09:52:36.890976","MEAN_MOTION":14.86141678,"ECCENTRICITY":0.00171341,"INCLINATION":82.5245,"RA_OF_ASC_NODE":82.683,"ARG_OF_PERICENTER":221.5933,"MEAN_ANOMALY":138.3981,"EPHEMERIS_TYPE":0,"CLASSIFICATION_TYPE":"U","NORAD_CAT_ID":17567,"ELEMENT_SET_NO":999,"REV_AT_EPOCH":8972,"BSTAR":4.3509339e-5,"MEAN_MOTION_DOT":4.06e-6,"MEAN_MOTION_DDOT":0},{"OBJECT_NAME":"COSMOS 1833","OBJECT_ID":"1987-027A","EPOCH":"2026-03-20T14:53:15.194400","MEAN_MOTION":14.13051227,"ECCENTRICITY":0.00236984,"INCLINATION":70.9194,"RA_OF_ASC_NODE":303.0455,"ARG_OF_PERICENTER":198.7745,"MEAN_ANOMALY":161.2504,"EPHEMERIS_TYPE":0,"CLASSIFICATION_TYPE":"U","NORAD_CAT_ID":17589,"ELEMENT_SET_NO":999,"REV_AT_EPOCH":1186,"BSTAR":-0.00010520287,"MEAN_MOTION_DOT":-2.45e-6,"MEAN_MOTION_DDOT":0},{"OBJECT_NAME":"SL-16 R/B","OBJECT_ID":"1987-027B","EPOCH":"2026-03-20T10:06:24.729120","MEAN_MOTION":14.17166613,"ECCENTRICITY":0.00030341,"INCLINATION":70.9993,"RA_OF_ASC_NODE":253.8789,"ARG_OF_PERICENTER":117.5862,"MEAN_ANOMALY":242.5571,"EPHEMERIS_TYPE":0,"CLASSIFICATION_TYPE":"U","NORAD_CAT_ID":17590,"ELEMENT_SET_NO":999,"REV_AT_EPOCH":1686,"BSTAR":-3.9175298e-5,"MEAN_MOTION_DOT":-1.27e-6,"MEAN_MOTION_DDOT":0},{"OBJECT_NAME":"SL-14 R/B","OBJECT_ID":"1987-038B","EPOCH":"2026-03-20T13:07:19.415136","MEAN_MOTION":14.8537848,"ECCENTRICITY":0.00204675,"INCLINATION":82.4984,"RA_OF_ASC_NODE":286.5779,"ARG_OF_PERICENTER":126.1406,"MEAN_ANOMALY":234.1708,"EPHEMERIS_TYPE":0,"CLASSIFICATION_TYPE":"U","NORAD_CAT_ID":17912,"ELEMENT_SET_NO":999,"REV_AT_EPOCH":8084,"BSTAR":4.3626051e-5,"MEAN_MOTION_DOT":4.01e-6,"MEAN_MOTION_DDOT":0},{"OBJECT_NAME":"COSMOS 1844","OBJECT_ID":"1987-041A","EPOCH":"2026-03-20T12:03:31.495968","MEAN_MOTION":14.14551601,"ECCENTRICITY":0.0030572,"INCLINATION":70.9009,"RA_OF_ASC_NODE":11.369,"ARG_OF_PERICENTER":2.1043,"MEAN_ANOMALY":358.0201,"EPHEMERIS_TYPE":0,"CLASSIFICATION_TYPE":"U","NORAD_CAT_ID":17973,"ELEMENT_SET_NO":999,"REV_AT_EPOCH":511,"BSTAR":7.7920348e-5,"MEAN_MOTION_DOT":1.02e-6,"MEAN_MOTION_DDOT":0},{"OBJECT_NAME":"SL-14 R/B","OBJECT_ID":"1987-055B","EPOCH":"2026-03-20T10:54:17.415936","MEAN_MOTION":14.85640159,"ECCENTRICITY":0.00201712,"INCLINATION":82.5023,"RA_OF_ASC_NODE":338.8884,"ARG_OF_PERICENTER":342.3294,"MEAN_ANOMALY":17.7218,"EPHEMERIS_TYPE":0,"CLASSIFICATION_TYPE":"U","NORAD_CAT_ID":18153,"ELEMENT_SET_NO":999,"REV_AT_EPOCH":7153,"BSTAR":4.3634873e-5,"MEAN_MOTION_DOT":4.03e-6,"MEAN_MOTION_DDOT":0},{"OBJECT_NAME":"COSMOS 1867","OBJECT_ID":"1987-060A","EPOCH":"2026-03-20T13:10:55.297632","MEAN_MOTION":14.31504634,"ECCENTRICITY":0.00146511,"INCLINATION":65.0094,"RA_OF_ASC_NODE":276.2923,"ARG_OF_PERICENTER":279.2787,"MEAN_ANOMALY":80.6641,"EPHEMERIS_TYPE":0,"CLASSIFICATION_TYPE":"U","NORAD_CAT_ID":18187,"ELEMENT_SET_NO":999,"REV_AT_EPOCH":2149,"BSTAR":2.4189963e-5,"MEAN_MOTION_DOT":-3.6e-7,"MEAN_MOTION_DDOT":0},{"OBJECT_NAME":"SL-14 R/B","OBJECT_ID":"1988-001B","EPOCH":"2026-03-20T09:11:39.568704","MEAN_MOTION":14.85539543,"ECCENTRICITY":0.0017592,"INCLINATION":82.5161,"RA_OF_ASC_NODE":185.3055,"ARG_OF_PERICENTER":198.5177,"MEAN_ANOMALY":161.5401,"EPHEMERIS_TYPE":0,"CLASSIFICATION_TYPE":"U","NORAD_CAT_ID":18749,"ELEMENT_SET_NO":999,"REV_AT_EPOCH":4361,"BSTAR":5.0017e-5,"MEAN_MOTION_DOT":4.57e-6,"MEAN_MOTION_DDOT":0},{"OBJECT_NAME":"COSMOS 1933","OBJECT_ID":"1988-020A","EPOCH":"2026-03-20T09:39:52.095456","MEAN_MOTION":15.1807649,"ECCENTRICITY":0.00047427,"INCLINATION":82.5106,"RA_OF_ASC_NODE":240.3093,"ARG_OF_PERICENTER":147.6353,"MEAN_ANOMALY":212.5172,"EPHEMERIS_TYPE":0,"CLASSIFICATION_TYPE":"U","NORAD_CAT_ID":18958,"ELEMENT_SET_NO":999,"REV_AT_EPOCH":5185,"BSTAR":0.00018142529,"MEAN_MOTION_DOT":3.726e-5,"MEAN_MOTION_DDOT":0},{"OBJECT_NAME":"SL-3 R/B","OBJECT_ID":"1988-032B","EPOCH":"2026-03-20T12:41:56.413824","MEAN_MOTION":15.20024414,"ECCENTRICITY":0.0025396,"INCLINATION":97.5207,"RA_OF_ASC_NODE":62.7433,"ARG_OF_PERICENTER":192.2129,"MEAN_ANOMALY":167.8493,"EPHEMERIS_TYPE":0,"CLASSIFICATION_TYPE":"U","NORAD_CAT_ID":19046,"ELEMENT_SET_NO":999,"REV_AT_EPOCH":5375,"BSTAR":0.00021289748,"MEAN_MOTION_DOT":4.556e-5,"MEAN_MOTION_DDOT":0},{"OBJECT_NAME":"SL-16 R/B","OBJECT_ID":"1988-039B","EPOCH":"2026-03-20T08:07:09.966720","MEAN_MOTION":14.19617766,"ECCENTRICITY":0.00232885,"INCLINATION":71.0151,"RA_OF_ASC_NODE":46.0292,"ARG_OF_PERICENTER":318.9466,"MEAN_ANOMALY":40.9905,"EPHEMERIS_TYPE":0,"CLASSIFICATION_TYPE":"U","NORAD_CAT_ID":19120,"ELEMENT_SET_NO":999,"REV_AT_EPOCH":95989,"BSTAR":-3.190284e-5,"MEAN_MOTION_DOT":-1.16e-6,"MEAN_MOTION_DDOT":0},{"OBJECT_NAME":"COSMOS 1953","OBJECT_ID":"1988-050A","EPOCH":"2026-03-20T05:31:35.525856","MEAN_MOTION":15.28683692,"ECCENTRICITY":0.0012666,"INCLINATION":82.5089,"RA_OF_ASC_NODE":147.6459,"ARG_OF_PERICENTER":89.5942,"MEAN_ANOMALY":270.6749,"EPHEMERIS_TYPE":0,"CLASSIFICATION_TYPE":"U","NORAD_CAT_ID":19210,"ELEMENT_SET_NO":999,"REV_AT_EPOCH":3939,"BSTAR":0.00016756,"MEAN_MOTION_DOT":4.716e-5,"MEAN_MOTION_DDOT":0}]
